STARLINK-1559
1 46077U 20055BC  26090.89081066  .00065651  00000+0  21010-2 0  9999
2 46077  53.0248 330.4269 0003654 123.2137 236.9213 15.31811742312984
